[{"OBJECT_NAME":"STARLINK-30387","OBJECT_ID":"2023-134T","EPOCH":"2026-03-09T22:00:01.999584","MEAN_MOTION":15.23386882,"ECCENTRICITY":0.00011247,"INCLINATION":42.9997,"RA_OF_ASC_NODE":181.6009,"ARG_OF_PERICENTER":281.651,"MEAN_ANOMALY":209.8929,"EPHEMERIS_TYPE":0,"CLASSIFICATION_TYPE":"U","NORAD_CAT_ID":57788,"ELEMENT_SET_NO":999,"REV_AT_EPOCH":572,"BSTAR":0.039566067,"MEAN_MOTION_DOT":0.0103327,"MEAN_MOTION_DDOT":0},{"OBJECT_NAME":"OBSERVER-1A","OBJECT_ID":"2023-174BV","EPOCH":"2026-03-09T23:21:50.564160","MEAN_MOTION":15.36182735,"ECCENTRICITY":0.00094995,"INCLINATION":97.3975,"RA_OF_ASC_NODE":152.077,"ARG_OF_PERICENTER":145.4591,"MEAN_ANOMALY":214.7271,"EPHEMERIS_TYPE":0,"CLASSIFICATION_TYPE":"U","NORAD_CAT_ID":58323,"ELEMENT_SET_NO":999,"REV_AT_EPOCH":12996,"BSTAR":0.00045031382,"MEAN_MOTION_DOT":0.00015832,"MEAN_MOTION_DDOT":0}]
